STARLINK-6267           
1 56400U 23061AC  26067.70159002  .00079261  00000+0  57109-2 0  9990
2 56400  43.0032 190.0400 0001611 240.4450 119.6232 15.03226279156756
KOMPSAT-7               
1 66820U 25279A   26068.87103100  .00004022  00000+0  31599-3 0  9996
2 66820  97.6738  18.4558 0009895 343.5135  16.5766 15.01421798 14723
